[
    {
        "CCSDS_OMM_VERS": "3.0",
        "COMMENT": "GENERATED VIA SPACE-TRACK.ORG API",
        "CREATION_DATE": "2024-08-10T22:56:16",
        "ORIGINATOR": "18 SPCS",
        "OBJECT_NAME": "COSMOS 1040",
        "OBJECT_ID": "1978-091G",
        "CENTER_NAME": "EARTH",
        "REF_FRAME": "TEME",
        "TIME_SYSTEM": "UTC",
        "MEAN_ELEMENT_THEORY": "SGP4",
        "EPOCH": "2024-08-10T21:49:40.736928",
        "MEAN_MOTION": "12.40866018",
        "ECCENTRICITY": "0.00305360",
        "INCLINATION": "74.0353",
        "RA_OF_ASC_NODE": "171.3227",
        "ARG_OF_PERICENTER": "349.3085",
        "MEAN_ANOMALY": "67.2223",
        "EPHEMERIS_TYPE": "0",
        "CLASSIFICATION_TYPE": "U",
        "NORAD_CAT_ID": "11049",
        "ELEMENT_SET_NO": "999",
        "REV_AT_EPOCH": "7729",
        "BSTAR": "0.00017530000000",
        "MEAN_MOTION_DOT": "0.00000008",
        "MEAN_MOTION_DDOT": "0.0000000000000",
        "SEMIMAJOR_AXIS": "7881.071",
        "PERIOD": "116.048",
        "APOAPSIS": "1527.002",
        "PERIAPSIS": "1478.870",
        "OBJECT_TYPE": "PAYLOAD",
        "RCS_SIZE": "MEDIUM",
        "COUNTRY_CODE": "CIS",
        "LAUNCH_DATE": "1978-10-04",
        "SITE": "PKMTR",
        "DECAY_DATE": null,
        "FILE": "4427545",
        "GP_ID": "264739255",
        "TLE_LINE0": "0 COSMOS 1040",
        "TLE_LINE1": "1 11049U 78091G   24223.90949927  .00000008  00000-0  17530-3 0  9999",
        "TLE_LINE2": "2 11049  74.0353 171.3227 0030536 349.3085  67.2223 12.40866018 77294"
    },
    {
        "CCSDS_OMM_VERS": "3.0",
        "COMMENT": "GENERATED VIA SPACE-TRACK.ORG API",
        "CREATION_DATE": "2024-08-10T22:46:31",
        "ORIGINATOR": "18 SPCS",
        "OBJECT_NAME": "DELTA 1 DEB",
        "OBJECT_ID": "1976-077BQ",
        "CENTER_NAME": "EARTH",
        "REF_FRAME": "TEME",
        "TIME_SYSTEM": "UTC",
        "MEAN_ELEMENT_THEORY": "SGP4",
        "EPOCH": "2024-08-10T21:49:37.806240",
        "MEAN_MOTION": "12.31879928",
        "ECCENTRICITY": "0.00656550",
        "INCLINATION": "102.3369",
        "RA_OF_ASC_NODE": "197.2368",
        "ARG_OF_PERICENTER": "17.0208",
        "MEAN_ANOMALY": "7.5309",
        "EPHEMERIS_TYPE": "0",
        "CLASSIFICATION_TYPE": "U",
        "NORAD_CAT_ID": "10767",
        "ELEMENT_SET_NO": "999",
        "REV_AT_EPOCH": "15972",
        "BSTAR": "0.00064159000000",
        "MEAN_MOTION_DOT": "0.00000032",
        "MEAN_MOTION_DDOT": "0.0000000000000",
        "SEMIMAJOR_AXIS": "7919.351",
        "PERIOD": "116.895",
        "APOAPSIS": "1593.210",
        "PERIAPSIS": "1489.221",
        "OBJECT_TYPE": "DEBRIS",
        "RCS_SIZE": "MEDIUM",
        "COUNTRY_CODE": "US",
        "LAUNCH_DATE": "1976-07-29",
        "SITE": "AFWTR",
        "DECAY_DATE": null,
        "FILE": "4427442",
        "GP_ID": "264737696",
        "TLE_LINE0": "0 DELTA 1 DEB",
        "TLE_LINE1": "1 10767U 76077BQ  24223.90946535  .00000032  00000-0  64159-3 0  9995",
        "TLE_LINE2": "2 10767 102.3369 197.2368 0065655  17.0208   7.5309 12.31879928159726"
    },
    {
        "CCSDS_OMM_VERS": "3.0",
        "COMMENT": "GENERATED VIA SPACE-TRACK.ORG API",
        "CREATION_DATE": "2024-08-10T22:56:16",
        "ORIGINATOR": "18 SPCS",
        "OBJECT_NAME": "PROBA V",
        "OBJECT_ID": "2013-021A",
        "CENTER_NAME": "EARTH",
        "REF_FRAME": "TEME",
        "TIME_SYSTEM": "UTC",
        "MEAN_ELEMENT_THEORY": "SGP4",
        "EPOCH": "2024-08-10T21:49:18.134688",
        "MEAN_MOTION": "14.23295345",
        "ECCENTRICITY": "0.00033620",
        "INCLINATION": "98.3081",
        "RA_OF_ASC_NODE": "227.3774",
        "ARG_OF_PERICENTER": "326.0087",
        "MEAN_ANOMALY": "34.0876",
        "EPHEMERIS_TYPE": "0",
        "CLASSIFICATION_TYPE": "U",
        "NORAD_CAT_ID": "39159",
        "ELEMENT_SET_NO": "999",
        "REV_AT_EPOCH": "58504",
        "BSTAR": "0.00016187000000",
        "MEAN_MOTION_DOT": "0.00000326",
        "MEAN_MOTION_DDOT": "0.0000000000000",
        "SEMIMAJOR_AXIS": "7192.367",
        "PERIOD": "101.174",
        "APOAPSIS": "816.650",
        "PERIAPSIS": "811.814",
        "OBJECT_TYPE": "PAYLOAD",
        "RCS_SIZE": "MEDIUM",
        "COUNTRY_CODE": "ESA",
        "LAUNCH_DATE": "2013-05-07",
        "SITE": "FRGUI",
        "DECAY_DATE": null,
        "FILE": "4427585",
        "GP_ID": "264739291",
        "TLE_LINE0": "0 PROBA V",
        "TLE_LINE1": "1 39159U 13021A   24223.90923767  .00000326  00000-0  16187-3 0  9997",
        "TLE_LINE2": "2 39159  98.3081 227.3774 0003362 326.0087  34.0876 14.23295345585048"
    },
    {
        "CCSDS_OMM_VERS": "3.0",
        "COMMENT": "GENERATED VIA SPACE-TRACK.ORG API",
        "CREATION_DATE": "2024-08-10T22:56:16",
        "ORIGINATOR": "18 SPCS",
        "OBJECT_NAME": "SJ-11-03",
        "OBJECT_ID": "2011-030A",
        "CENTER_NAME": "EARTH",
        "REF_FRAME": "TEME",
        "TIME_SYSTEM": "UTC",
        "MEAN_ELEMENT_THEORY": "SGP4",
        "EPOCH": "2024-08-10T21:49:10.287840",
        "MEAN_MOTION": "14.62487359",
        "ECCENTRICITY": "0.00088970",
        "INCLINATION": "97.8445",
        "RA_OF_ASC_NODE": "205.7139",
        "ARG_OF_PERICENTER": "19.7949",
        "MEAN_ANOMALY": "10.1954",
        "EPHEMERIS_TYPE": "0",
        "CLASSIFICATION_TYPE": "U",
        "NORAD_CAT_ID": "37730",
        "ELEMENT_SET_NO": "999",
        "REV_AT_EPOCH": "69839",
        "BSTAR": "0.00053748000000",
        "MEAN_MOTION_DOT": "0.00002681",
        "MEAN_MOTION_DDOT": "0.0000000000000",
        "SEMIMAJOR_AXIS": "7063.291",
        "PERIOD": "98.462",
        "APOAPSIS": "691.440",
        "PERIAPSIS": "678.872",
        "OBJECT_TYPE": "PAYLOAD",
        "RCS_SIZE": "LARGE",
        "COUNTRY_CODE": "PRC",
        "LAUNCH_DATE": "2011-07-06",
        "SITE": "JSC",
        "DECAY_DATE": null,
        "FILE": "4427622",
        "GP_ID": "264739840",
        "TLE_LINE0": "0 SJ-11-03",
        "TLE_LINE1": "1 37730U 11030A   24223.90914685  .00002681  00000-0  53748-3 0  9997",
        "TLE_LINE2": "2 37730  97.8445 205.7139 0008897  19.7949  10.1954 14.62487359698391"
    },
    {
        "CCSDS_OMM_VERS": "3.0",
        "COMMENT": "GENERATED VIA SPACE-TRACK.ORG API",
        "CREATION_DATE": "2024-08-10T22:46:31",
        "ORIGINATOR": "18 SPCS",
        "OBJECT_NAME": "SL-16 DEB",
        "OBJECT_ID": "1992-093BF",
        "CENTER_NAME": "EARTH",
        "REF_FRAME": "TEME",
        "TIME_SYSTEM": "UTC",
        "MEAN_ELEMENT_THEORY": "SGP4",
        "EPOCH": "2024-08-10T21:48:34.423200",
        "MEAN_MOTION": "14.44588572",
        "ECCENTRICITY": "0.00925470",
        "INCLINATION": "71.1151",
        "RA_OF_ASC_NODE": "93.8045",
        "ARG_OF_PERICENTER": "357.6631",
        "MEAN_ANOMALY": "102.6540",
        "EPHEMERIS_TYPE": "0",
        "CLASSIFICATION_TYPE": "U",
        "NORAD_CAT_ID": "22366",
        "ELEMENT_SET_NO": "999",
        "REV_AT_EPOCH": "62575",
        "BSTAR": "0.00847000000000",
        "MEAN_MOTION_DOT": "0.00030989",
        "MEAN_MOTION_DDOT": "0.0000000000000",
        "SEMIMAJOR_AXIS": "7121.515",
        "PERIOD": "99.682",
        "APOAPSIS": "809.287",
        "PERIAPSIS": "677.472",
        "OBJECT_TYPE": "DEBRIS",
        "RCS_SIZE": "MEDIUM",
        "COUNTRY_CODE": "CIS",
        "LAUNCH_DATE": "1992-12-25",
        "SITE": "TTMTR",
        "DECAY_DATE": null,
        "FILE": "4427500",
        "GP_ID": "264736694",
        "TLE_LINE0": "0 SL-16 DEB",
        "TLE_LINE1": "1 22366U 92093BF  24223.90873175  .00030989  00000-0  84700-2 0  9995",
        "TLE_LINE2": "2 22366  71.1151  93.8045 0092547 357.6631 102.6540 14.44588572625755"
    },
    {
        "CCSDS_OMM_VERS": "3.0",
        "COMMENT": "GENERATED VIA SPACE-TRACK.ORG API",
        "CREATION_DATE": "2024-08-10T22:46:31",
        "ORIGINATOR": "18 SPCS",
        "OBJECT_NAME": "COSMOS 2251 DEB",
        "OBJECT_ID": "1993-036QF",
        "CENTER_NAME": "EARTH",
        "REF_FRAME": "TEME",
        "TIME_SYSTEM": "UTC",
        "MEAN_ELEMENT_THEORY": "SGP4",
        "EPOCH": "2024-08-10T21:48:21.809664",
        "MEAN_MOTION": "14.78883432",
        "ECCENTRICITY": "0.00531450",
        "INCLINATION": "74.0825",
        "RA_OF_ASC_NODE": "176.6165",
        "ARG_OF_PERICENTER": "289.9040",
        "MEAN_ANOMALY": "129.2811",
        "EPHEMERIS_TYPE": "0",
        "CLASSIFICATION_TYPE": "U",
        "NORAD_CAT_ID": "34390",
        "ELEMENT_SET_NO": "999",
        "REV_AT_EPOCH": "81969",
        "BSTAR": "0.00686100000000",
        "MEAN_MOTION_DOT": "0.00052122",
        "MEAN_MOTION_DDOT": "0.0000000000000",
        "SEMIMAJOR_AXIS": "7010.988",
        "PERIOD": "97.371",
        "APOAPSIS": "670.113",
        "PERIAPSIS": "595.593",
        "OBJECT_TYPE": "DEBRIS",
        "RCS_SIZE": "SMALL",
        "COUNTRY_CODE": "CIS",
        "LAUNCH_DATE": "1993-06-16",
        "SITE": "PKMTR",
        "DECAY_DATE": null,
        "FILE": "4427518",
        "GP_ID": "264735261",
        "TLE_LINE0": "0 COSMOS 2251 DEB",
        "TLE_LINE1": "1 34390U 93036QF  24223.90858576  .00052122  00000-0  68610-2 0  9996",
        "TLE_LINE2": "2 34390  74.0825 176.6165 0053145 289.9040 129.2811 14.78883432819694"
    }
]